[
    {
        "Altitude(m)": 617719.7352080795,
        "Argument of Periapsis(deg)": 0.0,
        "Eccentricity": 0.0,
        "Inclination(deg)": 60.0,
        "Latitude(deg)": -41.10254336385622,
        "Longitude(deg)": 40.09470841631611,
        "Mean Anomaly(deg)": -130.9091,
        "RAAN(deg)": 290.0,
        "Satellite Name": "Test1 1290",
        "Satellite Number": 1290,
        "Semi-Major Axis(m)": 6980739.136638005,
        "Time(s)": 0
    },
    {
        "Altitude(m)": 617911.2708082219,
        "Argument of Periapsis(deg)": 0.00010418945913296404,
        "Eccentricity": 0.0,
        "Inclination(deg)": 60.0,
        "Latitude(deg)": -41.565734729051805,
        "Longitude(deg)": 40.59911522138711,
        "Mean Anomaly(deg)": -130.28899385453815,
        "RAAN(deg)": 289.99957995086027,
        "Satellite Name": "Test1 1290",
        "Satellite Number": 1290,
        "Semi-Major Axis(m)": 6980739.136638005,
        "Time(s)": 10
    },
    {
        "Altitude(m)": 618101.6811899851,
        "Argument of Periapsis(deg)": 0.0002083789182659281,
        "Eccentricity": 0.0,
        "Inclination(deg)": 60.0,
        "Latitude(deg)": -42.02624758811855,
        "Longitude(deg)": 41.11132937737531,
        "Mean Anomaly(deg)": -129.6688877090763,
        "RAAN(deg)": 289.99915990172053,
        "Satellite Name": "Test1 1290",
        "Satellite Number": 1290,
        "Semi-Major Axis(m)": 6980739.136638005,
        "Time(s)": 20
    },
    {
        "Altitude(m)": 618290.8933261718,
        "Argument of Periapsis(deg)": 0.00031256837739889213,
        "Eccentricity": 0.0,
        "Inclination(deg)": 60.0,
        "Latitude(deg)": -42.484001694460396,
        "Longitude(deg)": 41.63154556797934,
        "Mean Anomaly(deg)": -129.0487815636145,
        "RAAN(deg)": 289.9987398525808,
        "Satellite Name": "Test1 1290",
        "Satellite Number": 1290,
        "Semi-Major Axis(m)": 6980739.136638005,
        "Time(s)": 30
    },
    {
        "Altitude(m)": 618478.8345667938,
        "Argument of Periapsis(deg)": 0.0004167578365318562,
        "Eccentricity": 0.0,
        "Inclination(deg)": 60.0,
        "Latitude(deg)": -42.93891427644367,
        "Longitude(deg)": 42.159962270494475,
        "Mean Anomaly(deg)": -128.42867541815264,
        "RAAN(deg)": 289.99831980344106,
        "Satellite Name": "Test1 1290",
        "Satellite Number": 1290,
        "Semi-Major Axis(m)": 6980739.136638005,
        "Time(s)": 40
    },
    {
        "Altitude(m)": 618665.4326707326,
        "Argument of Periapsis(deg)": 0.0005209472956648203,
        "Eccentricity": 0.0,
        "Inclination(deg)": 60.0,
        "Latitude(deg)": -43.39089995928679,
        "Longitude(deg)": 42.69678065789524,
        "Mean Anomaly(deg)": -127.80856927269089,
        "RAAN(deg)": 289.9978997543013,
        "Satellite Name": "Test1 1290",
        "Satellite Number": 1290,
        "Semi-Major Axis(m)": 6980739.136638005,
        "Time(s)": 50
    },
    {
        "Altitude(m)": 618850.615837175,
        "Argument of Periapsis(deg)": 0.0006251367547977843,
        "Eccentricity": 0.0,
        "Inclination(deg)": 60.0,
        "Latitude(deg)": -43.83987068630732,
        "Longitude(deg)": 43.24220499403913,
        "Mean Anomaly(deg)": -127.18846312722904,
        "RAAN(deg)": 289.99747970516154,
        "Satellite Name": "Test1 1290",
        "Satellite Number": 1290,
        "Semi-Major Axis(m)": 6980739.136638005,
        "Time(s)": 60
    },
    {
        "Altitude(m)": 619034.3127368676,
        "Argument of Periapsis(deg)": 0.0007293262139307483,
        "Eccentricity": 0.0,
        "Inclination(deg)": 60.0,
        "Latitude(deg)": -44.28573563975946,
        "Longitude(deg)": 43.79644300725226,
        "Mean Anomaly(deg)": -126.56835698176724,
        "RAAN(deg)": 289.9970596560218,
        "Satellite Name": "Test1 1290",
        "Satellite Number": 1290,
        "Semi-Major Axis(m)": 6980739.136638005,
        "Time(s)": 70
    },
    {
        "Altitude(m)": 619216.4525431091,
        "Argument of Periapsis(deg)": 0.0008335156730637124,
        "Eccentricity": 0.0,
        "Inclination(deg)": 60.0,
        "Latitude(deg)": -44.72840116153202,
        "Longitude(deg)": 44.3597047274403,
        "Mean Anomaly(deg)": -125.94825083630538,
        "RAAN(deg)": 289.99663960688207,
        "Satellite Name": "Test1 1290",
        "Satellite Number": 1290,
        "Semi-Major Axis(m)": 6980739.136638005,
        "Time(s)": 80
    },
    {
        "Altitude(m)": 619396.9649625215,
        "Argument of Periapsis(deg)": 0.0009377051321966765,
        "Eccentricity": 0.0,
        "Inclination(deg)": 60.0,
        "Latitude(deg)": -45.16777067400315,
        "Longitude(deg)": 44.93220281036168,
        "Mean Anomaly(deg)": -125.32814469084353,
        "RAAN(deg)": 289.99621955774234,
        "Satellite Name": "Test1 1290",
        "Satellite Number": 1290,
        "Semi-Major Axis(m)": 6980739.136638005,
        "Time(s)": 90
    },
    {
        "Altitude(m)": 619575.7802655557,
        "Argument of Periapsis(deg)": 0.0010418945913296407,
        "Eccentricity": 0.0,
        "Inclination(deg)": 60.0,
        "Latitude(deg)": -45.603744601397466,
        "Longitude(deg)": 45.514152833966556,
        "Mean Anomaly(deg)": -124.70803854538167,
        "RAAN(deg)": 289.9957995086026,
        "Satellite Name": "Test1 1290",
        "Satellite Number": 1290,
        "Semi-Major Axis(m)": 6980739.136638005,
        "Time(s)": 100
    },
    {
        "Altitude(m)": 619752.829316724,
        "Argument of Periapsis(deg)": 0.0011460840504626045,
        "Eccentricity": 0.0,
        "Inclination(deg)": 60.0,
        "Latitude(deg)": -46.03622029203219,
        "Longitude(deg)": 46.105772051586946,
        "Mean Anomaly(deg)": -124.08793239991988,
        "RAAN(deg)": 289.99537945946287,
        "Satellite Name": "Test1 1290",
        "Satellite Number": 1290,
        "Semi-Major Axis(m)": 6980739.136638005,
        "Time(s)": 110
    },
    {
        "Altitude(m)": 619928.043604553,
        "Argument of Periapsis(deg)": 0.0012502735095955685,
        "Eccentricity": 0.0,
        "Inclination(deg)": 60.0,
        "Latitude(deg)": -46.46509194187941,
        "Longitude(deg)": 46.70727962526484,
        "Mean Anomaly(deg)": -123.46782625445802,
        "RAAN(deg)": 289.99495941032313,
        "Satellite Name": "Test1 1290",
        "Satellite Number": 1290,
        "Semi-Major Axis(m)": 6980739.136638005,
        "Time(s)": 120
    },
    {
        "Altitude(m)": 620101.3552712498,
        "Argument of Periapsis(deg)": 0.0013544629687285324,
        "Eccentricity": 0.0,
        "Inclination(deg)": 60.0,
        "Latitude(deg)": -46.890250519928735,
        "Longitude(deg)": 47.31889682378295,
        "Mean Anomaly(deg)": -122.84772010899617,
        "RAAN(deg)": 289.99453936118334,
        "Satellite Name": "Test1 1290",
        "Satellite Number": 1290,
        "Semi-Major Axis(m)": 6980739.136638005,
        "Time(s)": 130
    },
    {
        "Altitude(m)": 620272.6971420533,
        "Argument of Periapsis(deg)": 0.0014586524278614966,
        "Eccentricity": 0.0,
        "Inclination(deg)": 60.0,
        "Latitude(deg)": -47.31158369588639,
        "Longitude(deg)": 47.940845669862995,
        "Mean Anomaly(deg)": -122.22761396353431,
        "RAAN(deg)": 289.9941193120436,
        "Satellite Name": "Test1 1290",
        "Satellite Number": 1290,
        "Semi-Major Axis(m)": 6980739.136638005,
        "Time(s)": 140
    },
    {
        "Altitude(m)": 620442.0027542509,
        "Argument of Periapsis(deg)": 0.0015628418869944607,
        "Eccentricity": 0.0,
        "Inclination(deg)": 60.0,
        "Latitude(deg)": -47.728975770800204,
        "Longitude(deg)": 48.57334905952626,
        "Mean Anomaly(deg)": -121.60750781807252,
        "RAAN(deg)": 289.99369926290393,
        "Satellite Name": "Test1 1290",
        "Satellite Number": 1290,
        "Semi-Major Axis(m)": 6980739.136638005,
        "Time(s)": 150
    },
    {
        "Altitude(m)": 620609.2063859142,
        "Argument of Periapsis(deg)": 0.0016670313461274247,
        "Eccentricity": 0.0,
        "Inclination(deg)": 60.0,
        "Latitude(deg)": -48.14230761126346,
        "Longitude(deg)": 49.216630837919205,
        "Mean Anomaly(deg)": -120.98740167261066,
        "RAAN(deg)": 289.99327921376414,
        "Satellite Name": "Test1 1290",
        "Satellite Number": 1290,
        "Semi-Major Axis(m)": 6980739.136638005,
        "Time(s)": 160
    },
    {
        "Altitude(m)": 620774.2430842164,
        "Argument of Periapsis(deg)": 0.0017712208052603888,
        "Eccentricity": 0.0,
        "Inclination(deg)": 60.0,
        "Latitude(deg)": -48.55145658791797,
        "Longitude(deg)": 49.87091431586289,
        "Mean Anomaly(deg)": -120.36729552714881,
        "RAAN(deg)": 289.9928591646244,
        "Satellite Name": "Test1 1290",
        "Satellite Number": 1290,
        "Semi-Major Axis(m)": 6980739.136638005,
        "Time(s)": 170
    },
    {
        "Altitude(m)": 620937.0486934762,
        "Argument of Periapsis(deg)": 0.001875410264393353,
        "Eccentricity": 0.0,
        "Inclination(deg)": 60.0,
        "Latitude(deg)": -48.95629651903524,
        "Longitude(deg)": 50.53642224996006,
        "Mean Anomaly(deg)": -119.74718938168705,
        "RAAN(deg)": 289.9924391154847,
        "Satellite Name": "Test1 1290",
        "Satellite Number": 1290,
        "Semi-Major Axis(m)": 6980739.136638005,
        "Time(s)": 180
    },
    {
        "Altitude(m)": 621097.5598827605,
        "Argument of Periapsis(deg)": 0.0019795997235263173,
        "Eccentricity": 0.0,
        "Inclination(deg)": 60.0,
        "Latitude(deg)": -49.356697620032996,
        "Longitude(deg)": 51.21337677048876,
        "Mean Anomaly(deg)": -119.12708323622516,
        "RAAN(deg)": 289.99201906634494,
        "Satellite Name": "Test1 1290",
        "Satellite Number": 1290,
        "Semi-Major Axis(m)": 6980739.136638005,
        "Time(s)": 190
    }
]